ATS 1                   
1 02608U 66110A   09189.63439208  .00000000  00000-0  10000-3 0  9806
2 02608   7.8760 310.5213 0004022 194.0313 166.1092  1.00287763 72727
ATS 3                   
1 03029U 67111A   09189.38006751 -.00000091  00000-0  10000-3 0  4874
2 03029   9.4041 317.9162 0014359  41.2060 319.0175  1.00272509152592
ORIZURU (DEBUT)         
1 20479U 90013B   09190.20173352  .00000001  00000-0  65736-4 0  3083
2 20479  99.0707 108.5082 0539917 115.4777 250.3194 12.83685533909855
SURFSAT                 
1 23711U 95059B   09191.06263306 -.00000189  00000-0 -29193-3 0  2785
2 23711 100.3014 193.1017 0368667  66.3889 297.5537 13.12565541655437
MAQSAT H                
1 25023U 97066A   09190.19153425 -.00000015  00000-0  17319-3 0  6694
2 25023   7.5781 200.6223 6496402 180.3122 178.7806  3.09491820132037
MAQSAT B                
1 25024U 97066B   09187.64903186 -.00000052  00000-0 -18502-3 0  7269
2 25024   7.5809 198.4127 6507432 183.8188 166.2297  3.08766185131855
TEAMSAT                 
1 25025U 97066C   09190.15611366 -.00000070  00000-0 -16244-3 0  7346
2 25025   7.6124 211.9156 6505500 157.5883 253.7750  3.07911077131558
OPAL (OO-38)            
1 26063U 00004C   09190.45032430 -.00000026  00000-0  11532-4 0  5509
2 26063 100.2130 341.0712 0036809 198.1549 161.8319 14.35867433495143
FALCONSAT               
1 26064U 00004D   09190.28885498 -.00000062  00000-0 -82274-6 0  5280
2 26064 100.2143 338.8950 0038012 205.4883 154.4432 14.35419983494985
PICOSAT 1 & 2 [TETHERED]
1 26080U 00004H   09190.40734295  .00000069  00000-0  40421-4 0  1164
2 26080 100.2239   4.7197 0032907 147.1251 213.1977 14.40342299494684
PICOSAT 3               
1 26091U 00004J   09190.09965909  .00000139  00000-0  58522-4 0  6589
2 26091 100.2237  15.7677 0032024 110.6319 249.8303 14.43408699494587
PICOSAT 4               
1 26092U 00004K   09190.43229686  .00000009  00000-0  21491-4 0  5011
2 26092 100.2098 358.8724 0035712 142.9494 217.4154 14.40287803493905
PICOSAT 5               
1 26093U 00004L   09190.07479052  .00000222  00000-0  80706-4 0  3936
2 26093 100.2203  22.6803 0033584  93.7633 266.7402 14.44951582495216
PICOSAT 6               
1 26094U 00004M   09190.94936079  .00000122  00000-0  57663-4 0  8020
2 26094 100.2153 357.7692 0036547 151.7743 208.5430 14.39577855493481
SNAP 1                  
1 26386U 00033C   09191.06634190  .00000032  00000-0  15448-4 0  7540
2 26386  98.3815 223.5954 0012806 119.8011 240.4476 14.65148963482513
CHAMP                   
1 26405U 00039B   09191.25474201  .00008562  00000-0  36106-4 0  9153
2 26405  87.2238 304.1367 0003080  84.5198 275.6438 15.85180875513304
PICOSAT 9               
1 26930U 01043B   09190.16625285 -.00000074  00000-0  33998-5 0  1915
2 26930  67.0021 345.7805 0001741 265.3994  94.6907 14.30047523405880
PROBA 1                 
1 26958U 01049B   09191.08447644  .00000347  00000-0  40062-4 0  7731
2 26958  97.6216 252.9467 0080436 292.6236  66.6459 14.89677054419235
CUTE-1 (CO-55)          
1 27844U 03031E   09191.02289899  .00000017  00000-0  28037-4 0  6189
2 27844  98.7104 199.8632 0011022  78.6551 281.5848 14.20645519312506
CANX-1                  
1 27847U 03031H   09190.01429552 -.00000016  00000-0  12795-4 0  5444
2 27847  98.7048 199.8243 0010288  60.9248 299.2944 14.20967590312390
CUBESAT XI-IV (CO-57)   
1 27848U 03031J   09190.01746019  .00000029  00000-0  34070-4 0  5651
2 27848  98.7142 197.9344 0010756  84.9994 275.2417 14.20446969312325
NAXING 1                
1 28221U 04012B   09191.05561367 -.00000093  00000-0 -46028-5 0  2199
2 28221  97.4882 225.0438 0012625 119.7424 240.5106 14.87902937283712
ST5-A                   
1 28980U 06008A   09191.06733687  .00002066  00000-0  12224-3 0   349
2 28980 105.6900 190.8833 2357287 187.5689 168.2621 10.61378936127415
ST5-B                   
1 28981U 06008B   09190.13518269  .00005686  15389-5  19692-3 0   869
2 28981 105.6733 210.2243 2335966 168.6081 197.8919 10.73855616128167
ST5-C                   
1 28982U 06008C   09190.89118119  .00005730  15374-5  23195-3 0   837
2 28982 105.6936 205.8969 2345739 175.2169 187.6290 10.69745913127967
GENESIS 1               
1 29252U 06029A   09190.21177723 -.00000075  00000-0  78171-5 0  8166
2 29252  64.5080 284.6059 0030727 207.7527 152.1954 15.03395874164225
FALCONSAT-3             
1 30776U 07006E   09190.74676714  .00000179  00000-0  15966-4 0  6093
2 30776  35.4349 322.5359 0000431  38.5985 321.4761 15.03266693128497
GENESIS 2               
1 31789U 07028A   09191.10291315 -.00000007  00000-0  13097-4 0  5647
2 31789  64.5113 312.8780 0057772 259.1140 100.3475 15.03053427111574
